ONEWEB-0136             
1 47282U 20100AA  26127.17596564  .00000384  00000+0  10317-2 0  9995
2 47282  87.8980 358.8015 0001693  68.9179 291.2131 13.12444426259280
ONEWEB-0137             
1 47283U 20100AB  26127.13360203 -.00000367  00000+0 -10546-2 0  9998
2 47283  87.8988 358.8180 0001758  87.1397 272.9933 13.12444769259184
ONEWEB-0138             
1 47284U 20100AC  26127.18784511  .00000092  00000+0  22141-3 0  9994
2 47284  87.8985 358.8145 0001631  74.7469 285.3840 13.12442505259276
ONEWEB-0139             
1 47285U 20100AD  26127.15240551 -.00000037  00000+0 -13874-3 0  9997
2 47285  87.8980 358.8083 0001745  82.3626 277.7700 13.12444120259342
ONEWEB-0140             
1 47286U 20100AE  26127.18274235  .00000185  00000+0  48002-3 0  9990
2 47286  87.8985 358.7919 0002017  76.3540 283.7813 13.12443515259312
ONEWEB-0141             
1 47287U 20100AF  26127.15211110  .00000073  00000+0  16784-3 0  9999
2 47287  87.8982 358.8037 0001695  93.3416 266.7907 13.12445758259297
ONEWEB-0142             
1 47288U 20100AG  26127.14050873 -.00000182  00000+0 -54260-3 0  9990
2 47288  87.8977 358.8294 0001374  90.2494 269.8792 13.12442677259285
ONEWEB-0143             
1 47289U 20100AH  26127.15055424  .00000015  00000+0  72176-5 0  9990
2 47289  87.8982 358.8245 0001756  83.9431 276.1898 13.12445425259262
ONEWEB-0144             
1 47290U 20100AJ  26127.19798090 -.00000275  00000+0 -80013-3 0  9996
2 47290  87.8990 358.7868 0001481  75.6130 284.5163 13.12442151259195
ONEWEB-0145             
1 47291U 20100AK  26127.16919592  .00000492  00000+0  13326-2 0  9997
2 47291  87.8971 358.8257 0001661  80.8391 279.2926 13.12443915259383
ONEWEB-0146             
1 47292U 20100AL  26127.16580485  .00000451  00000+0  12169-2 0  9992
2 47292  87.8980 358.8150 0002080  83.0681 277.0684 13.12444979259297
ONEWEB-0147             
1 47293U 20100AM  26127.13191043 -.00000386  00000+0 -11077-2 0  9994
2 47293  87.8985 358.8021 0001799  77.4072 282.7258 13.12443843259184
ONEWEB-0115             
1 48042U 21025A   26127.26834803 -.00000184  00000+0 -53878-3 0  9998
2 48042  87.8957 328.3741 0001829  86.3486 273.7852 13.13470900248227
ONEWEB-0152             
1 48043U 21025B   26127.05335896 -.00000251  00000+0 -72208-3 0  9997
2 48043  87.8952 328.4148 0001895  86.4424 273.6922 13.13471053248150
ONEWEB-0153             
1 48044U 21025C   26127.25987895 -.00000016  00000+0 -79686-4 0  9999
2 48044  87.8947 328.3777 0001722  87.5361 272.5965 13.13470779248174
ONEWEB-0154             
1 48045U 21025D   26127.25649001 -.00000035  00000+0 -13202-3 0  9996
2 48045  87.8949 328.3759 0001782  82.1426 277.9905 13.13469718248136
