[{"OBJECT_NAME":"ONEWEB-0136","OBJECT_ID":"2020-100AA","EPOCH":"2026-05-07T04:13:23.431296","MEAN_MOTION":13.12444426,"ECCENTRICITY":0.0001693,"INCLINATION":87.898,"RA_OF_ASC_NODE":358.8015,"ARG_OF_PERICENTER":68.9179,"MEAN_ANOMALY":291.2131,"EPHEMERIS_TYPE":0,"CLASSIFICATION_TYPE":"U","NORAD_CAT_ID":47282,"ELEMENT_SET_NO":999,"REV_AT_EPOCH":25928,"BSTAR":0.0010317,"MEAN_MOTION_DOT":3.84e-06,"MEAN_MOTION_DDOT":0.0},{"OBJECT_NAME":"ONEWEB-0137","OBJECT_ID":"2020-100AB","EPOCH":"2026-05-07T03:12:23.215392","MEAN_MOTION":13.12444769,"ECCENTRICITY":0.0001758,"INCLINATION":87.8988,"RA_OF_ASC_NODE":358.818,"ARG_OF_PERICENTER":87.1397,"MEAN_ANOMALY":272.9933,"EPHEMERIS_TYPE":0,"CLASSIFICATION_TYPE":"U","NORAD_CAT_ID":47283,"ELEMENT_SET_NO":999,"REV_AT_EPOCH":25918,"BSTAR":-0.0010546,"MEAN_MOTION_DOT":-3.67e-06,"MEAN_MOTION_DDOT":0.0},{"OBJECT_NAME":"ONEWEB-0138","OBJECT_ID":"2020-100AC","EPOCH":"2026-05-07T04:30:29.817504","MEAN_MOTION":13.12442505,"ECCENTRICITY":0.0001631,"INCLINATION":87.8985,"RA_OF_ASC_NODE":358.8145,"ARG_OF_PERICENTER":74.7469,"MEAN_ANOMALY":285.384,"EPHEMERIS_TYPE":0,"CLASSIFICATION_TYPE":"U","NORAD_CAT_ID":47284,"ELEMENT_SET_NO":999,"REV_AT_EPOCH":25927,"BSTAR":0.00022141,"MEAN_MOTION_DOT":9.2e-07,"MEAN_MOTION_DDOT":0.0},{"OBJECT_NAME":"ONEWEB-0139","OBJECT_ID":"2020-100AD","EPOCH":"2026-05-07T03:39:27.836064","MEAN_MOTION":13.1244412,"ECCENTRICITY":0.0001745,"INCLINATION":87.898,"RA_OF_ASC_NODE":358.8083,"ARG_OF_PERICENTER":82.3626,"MEAN_ANOMALY":277.77,"EPHEMERIS_TYPE":0,"CLASSIFICATION_TYPE":"U","NORAD_CAT_ID":47285,"ELEMENT_SET_NO":999,"REV_AT_EPOCH":25934,"BSTAR":-0.00013874000000000002,"MEAN_MOTION_DOT":-3.7e-07,"MEAN_MOTION_DDOT":0.0},{"OBJECT_NAME":"ONEWEB-0140","OBJECT_ID":"2020-100AE","EPOCH":"2026-05-07T04:23:08.939040","MEAN_MOTION":13.12443515,"ECCENTRICITY":0.0002017,"INCLINATION":87.8985,"RA_OF_ASC_NODE":358.7919,"ARG_OF_PERICENTER":76.354,"MEAN_ANOMALY":283.7813,"EPHEMERIS_TYPE":0,"CLASSIFICATION_TYPE":"U","NORAD_CAT_ID":47286,"ELEMENT_SET_NO":999,"REV_AT_EPOCH":25931,"BSTAR":0.00048002,"MEAN_MOTION_DOT":1.85e-06,"MEAN_MOTION_DDOT":0.0},{"OBJECT_NAME":"ONEWEB-0141","OBJECT_ID":"2020-100AF","EPOCH":"2026-05-07T03:39:02.399040","MEAN_MOTION":13.12445758,"ECCENTRICITY":0.0001695,"INCLINATION":87.8982,"RA_OF_ASC_NODE":358.8037,"ARG_OF_PERICENTER":93.3416,"MEAN_ANOMALY":266.7907,"EPHEMERIS_TYPE":0,"CLASSIFICATION_TYPE":"U","NORAD_CAT_ID":47287,"ELEMENT_SET_NO":999,"REV_AT_EPOCH":25929,"BSTAR":0.00016784,"MEAN_MOTION_DOT":7.3e-07,"MEAN_MOTION_DDOT":0.0},{"OBJECT_NAME":"ONEWEB-0142","OBJECT_ID":"2020-100AG","EPOCH":"2026-05-07T03:22:19.954272","MEAN_MOTION":13.12442677,"ECCENTRICITY":0.0001374,"INCLINATION":87.8977,"RA_OF_ASC_NODE":358.8294,"ARG_OF_PERICENTER":90.2494,"MEAN_ANOMALY":269.8792,"EPHEMERIS_TYPE":0,"CLASSIFICATION_TYPE":"U","NORAD_CAT_ID":47288,"ELEMENT_SET_NO":999,"REV_AT_EPOCH":25928,"BSTAR":-0.0005426,"MEAN_MOTION_DOT":-1.82e-06,"MEAN_MOTION_DDOT":0.0},{"OBJECT_NAME":"ONEWEB-0143","OBJECT_ID":"2020-100AH","EPOCH":"2026-05-07T03:36:47.886336","MEAN_MOTION":13.12445425,"ECCENTRICITY":0.0001756,"INCLINATION":87.8982,"RA_OF_ASC_NODE":358.8245,"ARG_OF_PERICENTER":83.9431,"MEAN_ANOMALY":276.1898,"EPHEMERIS_TYPE":0,"CLASSIFICATION_TYPE":"U","NORAD_CAT_ID":47289,"ELEMENT_SET_NO":999,"REV_AT_EPOCH":25926,"BSTAR":7.2176e-06,"MEAN_MOTION_DOT":1.5e-07,"MEAN_MOTION_DDOT":0.0},{"OBJECT_NAME":"ONEWEB-0144","OBJECT_ID":"2020-100AJ","EPOCH":"2026-05-07T04:45:05.549760","MEAN_MOTION":13.12442151,"ECCENTRICITY":0.0001481,"INCLINATION":87.899,"RA_OF_ASC_NODE":358.7868,"ARG_OF_PERICENTER":75.613,"MEAN_ANOMALY":284.5163,"EPHEMERIS_TYPE":0,"CLASSIFICATION_TYPE":"U","NORAD_CAT_ID":47290,"ELEMENT_SET_NO":999,"REV_AT_EPOCH":25919,"BSTAR":-0.00080013,"MEAN_MOTION_DOT":-2.75e-06,"MEAN_MOTION_DDOT":0.0},{"OBJECT_NAME":"ONEWEB-0145","OBJECT_ID":"2020-100AK","EPOCH":"2026-05-07T04:03:38.527488","MEAN_MOTION":13.12443915,"ECCENTRICITY":0.0001661,"INCLINATION":87.8971,"RA_OF_ASC_NODE":358.8257,"ARG_OF_PERICENTER":80.8391,"MEAN_ANOMALY":279.2926,"EPHEMERIS_TYPE":0,"CLASSIFICATION_TYPE":"U","NORAD_CAT_ID":47291,"ELEMENT_SET_NO":999,"REV_AT_EPOCH":25938,"BSTAR":0.0013326,"MEAN_MOTION_DOT":4.92e-06,"MEAN_MOTION_DDOT":0.0},{"OBJECT_NAME":"ONEWEB-0146","OBJECT_ID":"2020-100AL","EPOCH":"2026-05-07T03:58:45.539040","MEAN_MOTION":13.12444979,"ECCENTRICITY":0.000208,"INCLINATION":87.898,"RA_OF_ASC_NODE":358.815,"ARG_OF_PERICENTER":83.0681,"MEAN_ANOMALY":277.0684,"EPHEMERIS_TYPE":0,"CLASSIFICATION_TYPE":"U","NORAD_CAT_ID":47292,"ELEMENT_SET_NO":999,"REV_AT_EPOCH":25929,"BSTAR":0.0012169000000000001,"MEAN_MOTION_DOT":4.51e-06,"MEAN_MOTION_DDOT":0.0},{"OBJECT_NAME":"ONEWEB-0147","OBJECT_ID":"2020-100AM","EPOCH":"2026-05-07T03:09:57.061152","MEAN_MOTION":13.12443843,"ECCENTRICITY":0.0001799,"INCLINATION":87.8985,"RA_OF_ASC_NODE":358.8021,"ARG_OF_PERICENTER":77.4072,"MEAN_ANOMALY":282.7258,"EPHEMERIS_TYPE":0,"CLASSIFICATION_TYPE":"U","NORAD_CAT_ID":47293,"ELEMENT_SET_NO":999,"REV_AT_EPOCH":25918,"BSTAR":-0.0011076999999999999,"MEAN_MOTION_DOT":-3.86e-06,"MEAN_MOTION_DDOT":0.0},{"OBJECT_NAME":"ONEWEB-0115","OBJECT_ID":"2021-025A","EPOCH":"2026-05-07T06:26:25.269792","MEAN_MOTION":13.134709,"ECCENTRICITY":0.0001829,"INCLINATION":87.8957,"RA_OF_ASC_NODE":328.3741,"ARG_OF_PERICENTER":86.3486,"MEAN_ANOMALY":273.7852,"EPHEMERIS_TYPE":0,"CLASSIFICATION_TYPE":"U","NORAD_CAT_ID":48042,"ELEMENT_SET_NO":999,"REV_AT_EPOCH":24822,"BSTAR":-0.0005387800000000001,"MEAN_MOTION_DOT":-1.84e-06,"MEAN_MOTION_DDOT":0.0},{"OBJECT_NAME":"ONEWEB-0152","OBJECT_ID":"2021-025B","EPOCH":"2026-05-07T01:16:50.214144","MEAN_MOTION":13.13471053,"ECCENTRICITY":0.0001895,"INCLINATION":87.8952,"RA_OF_ASC_NODE":328.4148,"ARG_OF_PERICENTER":86.4424,"MEAN_ANOMALY":273.6922,"EPHEMERIS_TYPE":0,"CLASSIFICATION_TYPE":"U","NORAD_CAT_ID":48043,"ELEMENT_SET_NO":999,"REV_AT_EPOCH":24815,"BSTAR":-0.00072208,"MEAN_MOTION_DOT":-2.51e-06,"MEAN_MOTION_DDOT":0.0},{"OBJECT_NAME":"ONEWEB-0153","OBJECT_ID":"2021-025C","EPOCH":"2026-05-07T06:14:13.541280","MEAN_MOTION":13.13470779,"ECCENTRICITY":0.0001722,"INCLINATION":87.8947,"RA_OF_ASC_NODE":328.3777,"ARG_OF_PERICENTER":87.5361,"MEAN_ANOMALY":272.5965,"EPHEMERIS_TYPE":0,"CLASSIFICATION_TYPE":"U","NORAD_CAT_ID":48044,"ELEMENT_SET_NO":999,"REV_AT_EPOCH":24817,"BSTAR":-7.968600000000001e-05,"MEAN_MOTION_DOT":-1.6e-07,"MEAN_MOTION_DDOT":0.0},{"OBJECT_NAME":"ONEWEB-0154","OBJECT_ID":"2021-025D","EPOCH":"2026-05-07T06:09:20.736864","MEAN_MOTION":13.13469718,"ECCENTRICITY":0.0001782,"INCLINATION":87.8949,"RA_OF_ASC_NODE":328.3759,"ARG_OF_PERICENTER":82.1426,"MEAN_ANOMALY":277.9905,"EPHEMERIS_TYPE":0,"CLASSIFICATION_TYPE":"U","NORAD_CAT_ID":48045,"ELEMENT_SET_NO":999,"REV_AT_EPOCH":24813,"BSTAR":-0.00013202,"MEAN_MOTION_DOT":-3.5e-07,"MEAN_MOTION_DDOT":0.0}]